NORAD_CAT_ID,OBJECT_NAME,OBJECT_TYPE,EPOCH,MEAN_MOTION,ECCENTRICITY,INCLINATION,RA_OF_ASC_NODE,ARG_OF_PERICENTER,MEAN_ANOMALY,BSTAR,MEAN_MOTION_DOT,MEAN_MOTION_DDOT,TLE_LINE0,TLE_LINE1,TLE_LINE2,SEMIMAJOR_AXIS,PERIOD,APOGEE,PERIGEE,DECAYED
52834.0,STARLINK-4108,PAYLOAD,2022-07-27 06:00:02,15.49891716,0.0001648,53.2121,209.2791,72.3607,132.265,-0.00025672,-0.00014998,0.0,0 STARLINK-4108,1 52834U 22062E   22208.25002315 -.00014998  00000-0 -25672-3 0  9994,2 52834  53.2121 209.2791 0001648  72.3607 132.2650 15.49891716  6244,6795.18,92.91,418.164,415.925,0.0
52834.0,STARLINK-4108,PAYLOAD,2022-07-27 14:00:01,15.49904885,0.0001612,53.2121,207.6859,69.38,196.0915,-0.00031939,-0.00018549,0.0,0 STARLINK-4108,1 52834U 22062E   22208.58334491 -.00018549  00000-0 -31939-3 0  9992,2 52834  53.2121 207.6859 0001612  69.3800 196.0915 15.49904885  1309,6795.141,92.909,418.101,415.911,0.0
52834.0,STARLINK-4108,PAYLOAD,2022-07-27 22:00:00,15.4987775,0.0001606,53.2123,206.0911,77.3861,249.0224,0.00090051,0.00050978,0.0,0 STARLINK-4108,1 52834U 22062E   22208.91667824  .00050978  00000-0  90051-3 0  9998,2 52834  53.2123 206.0911 0001606  77.3861 249.0224 15.49877750  1304,6795.22,92.911,418.177,415.994,0.0
52834.0,STARLINK-4108,PAYLOAD,2022-07-28 00:00:00,15.49898151,0.0001654,53.2131,205.6923,77.4302,354.2026,0.00043718,0.0002445,0.0,0 STARLINK-4108,1 52834U 22062E   22209.00001157  .00024450  00000-0  43718-3 0  9994,2 52834  53.2131 205.6923 0001654  77.4302 354.2026 15.49898151  6363,6795.161,92.909,418.15,415.902,0.0
52834.0,STARLINK-4108,PAYLOAD,2022-07-28 14:00:01,15.4967888,0.0001471,53.2157,202.8989,71.3191,16.9849,-0.0083907,-0.00447196,0.0,0 STARLINK-4108,1 52834U 22062E   22209.58334491 -.00447196  00000-0 -83907-2 0  9998,2 52834  53.2157 202.8989 0001471  71.3191  16.9849 15.49678880  1307,6795.802,92.922,418.666,416.667,0.0
52834.0,STARLINK-4108,PAYLOAD,2022-07-28 22:00:00,15.49411061,0.0001254,53.2173,201.302,82.63,66.1698,-0.022143,-0.0111601,0.0,0 STARLINK-4108,1 52834U 22062E   22209.91667824 -.01116010  00000-0 -22143-1 0  9997,2 52834  53.2173 201.3020 0001254  82.6300  66.1698 15.49411061  1306,6796.585,92.939,419.302,417.598,0.0
52834.0,STARLINK-4108,PAYLOAD,2022-07-29 00:00:00,15.49209608,0.0001255,53.2176,200.9039,91.4834,162.3698,-0.022238,-0.01113118,0.0,0 STARLINK-4108,1 52834U 22062E   22210.00001157 -.01113118  00000-0 -22238-1 0  9991,2 52834  53.2176 200.9039 0001255  91.4834 162.3698 15.49209608  6514,6797.174,92.951,419.892,418.186,0.0
52834.0,STARLINK-4108,PAYLOAD,2022-07-29 14:00:01,15.47806229,0.0001203,53.2171,198.1194,81.7765,185.7639,-0.023458,-0.01133382,0.0,0 STARLINK-4108,1 52834U 22062E   22210.58334491 -.01133382  00000-0 -23458-1 0  9994,2 52834  53.2171 198.1194 0001203  81.7765 185.7639 15.47806229  1303,6801.281999999997,93.035,423.965,422.329,0.0
52834.0,STARLINK-4108,PAYLOAD,2022-07-29 22:00:00,15.46999614,0.0001159999999999,53.2173,196.5289,69.0984,256.3675,-0.023979,-0.01126905,0.0,0 STARLINK-4108,1 52834U 22062E   22210.91667824 -.01126905  00000-0 -23979-1 0  9991,2 52834  53.2173 196.5289 0001160  69.0984 256.3675 15.46999614  6665,6803.646,93.083,426.3,424.722,0.0
52834.0,STARLINK-4108,PAYLOAD,2022-07-30 14:00:01,15.45395593,0.0001159999999999,53.2172,193.3577,70.8837,7.5336,-0.025404,-0.01129101,0.0,0 STARLINK-4108,1 52834U 22062E   22211.58334491 -.01129101  00000-0 -25404-1 0  9992,2 52834  53.2172 193.3577 0001160  70.8837   7.5336 15.45395593  6762,6808.353,93.18,431.008,429.42800000000005,0.0
52834.0,STARLINK-4108,PAYLOAD,2022-07-30 22:00:00,15.44592551,0.0001341999999999,53.2173,191.773,65.9993,67.4477,-0.026101,-0.01128591,0.0,0 STARLINK-4108,1 52834U 22062E   22211.91667824 -.01128591  00000-0 -26101-1 0  9995,2 52834  53.2173 191.7730 0001342  65.9993  67.4477 15.44592551  1304,6810.7130000000025,93.228,433.492,431.664,0.0
52834.0,STARLINK-4108,PAYLOAD,2022-07-31 06:00:02,15.43789033,0.00015,53.2172,190.1935,59.6847,127.8901,-0.026798,-0.01127483,0.0,0 STARLINK-4108,1 52834U 22062E   22212.25002315 -.01127483  00000-0 -26798-1 0  9992,2 52834  53.2172 190.1935 0001500  59.6847 127.8901 15.43789033  6868,6813.076,93.277,435.963,433.919,0.0
52834.0,STARLINK-4108,PAYLOAD,2022-07-31 14:00:01,15.42988073,0.000128,53.2173,188.6132,75.2724,165.3377,-0.0276329999999999,-0.01131007,0.0,0 STARLINK-4108,1 52834U 22062E   22212.58334491 -.01131007  00000-0 -27633-1 0  9997,2 52834  53.2173 188.6132 0001280  75.2724 165.3377 15.42988073  1305,6815.433000000001,93.325,438.171,436.426,0.0
52834.0,STARLINK-4108,PAYLOAD,2022-07-31 22:00:00,15.42182134,0.0001224,53.2174,187.0344,75.0607,217.6853,-0.0282279999999999,-0.01124856,0.0,0 STARLINK-4108,1 52834U 22062E   22212.91667824 -.01124856  00000-0 -28228-1 0  9998,2 52834  53.2174 187.0344 0001224  75.0607 217.6853 15.42182134  1304,6817.807,93.374,440.507,438.838,0.0
52834.0,STARLINK-4108,PAYLOAD,2022-08-01 04:00:00,15.4157865,0.0001392,53.2173,185.8542,65.4775,175.7362,-0.028766,-0.01123434,0.0,0 STARLINK-4108,1 52834U 22062E   22213.16667824 -.01123434  00000-0 -28766-1 0  9994,2 52834  53.2173 185.8542 0001392  65.4775 175.7362 15.41578650  7007,6819.587,93.411,442.401,440.502,0.0
52834.0,STARLINK-4108,PAYLOAD,2022-08-01 14:00:01,15.40578371,0.0001225,53.2174,183.8859,56.7297,337.3903,-0.029897,-0.01128655,0.0,0 STARLINK-4108,1 52834U 22062E   22213.58334491 -.01128655  00000-0 -29897-1 0  9997,2 52834  53.2174 183.8859 0001225  56.7297 337.3903 15.40578371  1307,6822.538000000001,93.471,445.239,443.567,0.0
52834.0,STARLINK-4108,PAYLOAD,2022-08-01 22:00:00,15.39773509,0.0001299,53.2176,182.313,62.6385,20.7227,-0.0305889999999999,-0.01124668,0.0,0 STARLINK-4108,1 52834U 22062E   22213.91667824 -.01124668  00000-0 -30589-1 0  9993,2 52834  53.2176 182.3130 0001299  62.6385  20.7227 15.39773509  7126,6824.916,93.52,447.667,445.894,0.0
52834.0,STARLINK-4108,PAYLOAD,2022-08-02 14:00:01,15.38169684,0.0001411,53.2174,179.1758,64.8116,114.1347,-0.032357,-0.01128089,0.0,0 STARLINK-4108,1 52834U 22062E   22214.58334491 -.01128089  00000-0 -32357-1 0  9994,2 52834  53.2174 179.1758 0001411  64.8116 114.1347 15.38169684  7220,6829.659000000002,93.618,452.487,450.56,0.0
52834.0,STARLINK-4108,PAYLOAD,2022-08-03 14:00:01,15.35761546,0.0001262,53.2174,174.483,60.271,254.8181,-0.0350269999999999,-0.0112899,0.0,0 STARLINK-4108,1 52834U 22062E   22215.58334491 -.01128990  00000-0 -35027-1 0  9993,2 52834  53.2174 174.4830 0001262  60.2710 254.8181 15.35761546  7380,6836.795999999999,93.765,459.524,457.799,0.0
52834.0,STARLINK-4108,PAYLOAD,2022-08-03 22:00:01,15.34956101,0.0001257,53.2176,172.9221,58.9331,299.6721,-0.035758,-0.0112354,0.0,0 STARLINK-4108,1 52834U 22062E   22215.91668981 -.01123540  00000-0 -35758-1 0  9991,2 52834  53.2176 172.9221 0001257  58.9331 299.6721 15.34956101  1301,6839.188,93.814,461.913,460.193,0.0
52834.0,STARLINK-4108,PAYLOAD,2022-08-04 14:00:01,15.33350906,0.0001284,53.2175,169.8073,62.217,20.3324,-0.037697,-0.01125096,0.0,0 STARLINK-4108,1 52834U 22062E   22216.58334491 -.01125096  00000-0 -37697-1 0  9993,2 52834  53.2175 169.8073 0001284  62.2170  20.3324 15.33350906  7538,6843.96,93.912,466.704,464.946,0.0
52834.0,STARLINK-4108,PAYLOAD,2022-08-04 22:00:00,15.32546579,0.0001462,53.2177,168.2521,57.3205,65.7863,-0.038563,-0.01122263,0.0,0 STARLINK-4108,1 52834U 22062E   22216.91667824 -.01122263  00000-0 -38563-1 0  9995,2 52834  53.2177 168.2521 0001462  57.3205  65.7863 15.32546579  1305,6846.355,93.961,469.22,467.219,0.0
52834.0,STARLINK-4108,PAYLOAD,2022-08-05 14:00:01,15.30942581,0.0001428,53.2174,165.1485,65.7486,135.6407,-0.04067,-0.01125044,0.0,0 STARLINK-4108,1 52834U 22062E   22217.58335648 -.01125044  00000-0 -40670-1 0  9997,2 52834  53.2174 165.1485 0001428  65.7486 135.6407 15.30942581  1305,6851.136,94.06,473.979,472.022,0.0
52834.0,STARLINK-4108,PAYLOAD,2022-08-05 22:00:00,15.3013802,0.0001423,53.2175,163.5994,66.8019,172.1863,-0.041569,-0.01121686,0.0,0 STARLINK-4108,1 52834U 22062E   22217.91667824 -.01121686  00000-0 -41569-1 0  9994,2 52834  53.2175 163.5994 0001423  66.8019 172.1863 15.30138020  1309,6853.5369999999975,94.109,476.377,474.427,0.0
52834.0,STARLINK-4108,PAYLOAD,2022-08-06 14:00:01,15.28533987,0.0001204,53.2174,160.5071,73.6997,237.7186,-0.04384,-0.01125191,0.0,0 STARLINK-4108,1 52834U 22062E   22218.58334491 -.01125191  00000-0 -43840-1 0  9998,2 52834  53.2174 160.5071 0001204  73.6997 237.7186 15.28533987  7848,6858.331,94.208,481.022,479.37,0.0
52834.0,STARLINK-4108,PAYLOAD,2022-08-06 22:00:00,15.27730151,0.0001203,53.2175,158.9636,71.6619,274.5244,-0.044832,-0.01122764,0.0,0 STARLINK-4108,1 52834U 22062E   22218.91667824 -.01122764  00000-0 -44832-1 0  9999,2 52834  53.2175 158.9636 0001203  71.6619 274.5244 15.27730151  1305,6860.736999999999,94.257,483.427,481.776,0.0
52834.0,STARLINK-4108,PAYLOAD,2022-08-07 14:00:01,15.26123458,0.0001224,53.2174,155.8824,64.9776,347.8511,-0.047055,-0.01122061,0.0,0 STARLINK-4108,1 52834U 22062E   22219.58334491 -.01122061  00000-0 -47055-1 0  9994,2 52834  53.2174 155.8824 0001224  64.9776 347.8511 15.26123458  1307,6865.551,94.357,488.256,486.576,0.0
52834.0,STARLINK-4108,PAYLOAD,2022-08-07 22:00:00,15.2532116,0.0001327,53.2174,154.3449,64.9913,19.7104,-0.048236,-0.01122549,0.0,0 STARLINK-4108,1 52834U 22062E   22219.91667824 -.01122549  00000-0 -48236-1 0  9993,2 52834  53.2174 154.3449 0001327  64.9913  19.7104 15.25321160  1303,6867.958000000001,94.406,490.735,488.912,0.0
52834.0,STARLINK-4108,PAYLOAD,2022-08-08 14:00:01,15.23713369,0.0001453,53.2174,151.2748,60.7234,84.8953,-0.05046,-0.01133916,0.0,0 STARLINK-4108,1 52834U 22062E   22220.58335648 -.01133916  00000-0 -50460-1 0  9996,2 52834  53.2174 151.2748 0001453  60.7234  84.8953 15.23713369  8149,6872.7890000000025,94.506,495.652,493.655,0.0
